satname,norad_id,inclination_deg,eccentricity,mean_motion_rev_per_day,perigee_km,apogee_km,l1,l2
STARLINK-1471,45735,53.0515,0.0001753,15.40632132,443.046536925719,445.4384631784369,1 45735U 20038F   25299.62394830  .00025213  00000+0  61732-3 0  9993,2 45735  53.0515  59.9291 0001753 141.4800 218.6329 15.40632132296818
STARLINK-1474,45738,53.0396,0.0003257,15.65972247,368.2460251834118,372.6420508715837,1 45738U 20038J   25299.48602209  .00071683  00000+0  68837-3 0  9997,2 45738  53.0396  18.8455 0003257 307.8832  52.1888 15.65972247297372
STARLINK-1475,45739,53.0496,0.0005652,15.74269451,342.9099633292435,350.5117313358687,1 45739U 20038K   25299.91670139  .00212240  00000+0  14113-2 0  9996,2 45739  53.0496 343.5496 0005652 344.6912 129.4264 15.74269451  5959
STARLINK-1480,45741,53.0542,0.0001508,15.06387873,546.2043775285774,548.2930738634459,1 45741U 20038M   25299.80861109 -.00000508  00000+0 -15238-4 0  9991,2 45741  53.0542 117.6356 0001508  90.2902 269.8260 15.06387873296027
STARLINK-1500,45744,53.0388,0.0003749,15.27234988,481.5097345190361,486.65502661058326,1 45744U 20038Q   25299.72194918  .00024893  00000+0  93005-3 0  9990,2 45744  53.0388  97.5289 0003749 171.7721 188.3339 15.27234988296294
STARLINK-1504,45746,53.0283,0.0002989,15.39897627,444.3719093886657,448.45162464158693,1 45746U 20038S   25299.63855030  .00075883  00000+0  18708-2 0  9992,2 45746  53.0283  62.9593 0002989 186.7480 173.3484 15.39897627296762
STARLINK-1506,45747,53.0549,0.0002962,15.21155795,500.31514386795516,504.3911462298811,1 45747U 20038T   25298.73906850  .00023205  00000+0  10398-2 0  9998,2 45747  53.0549 104.3277 0002962 185.9170 174.1791 15.21155795296119
STARLINK-1464,45751,53.0535,0.0001261,15.0640727,546.3159928814894,548.0625601684287,1 45751U 20038X   25299.81045505  .00003903  00000+0  28069-3 0  9992,2 45751  53.0535  97.6247 0001261  84.9616 275.1517 15.06407270296304
STARLINK-1477,45754,53.0534,0.0001384,15.06393169,546.2740229105711,548.1909651865244,1 45754U 20038AA  25299.82518285  .00000494  00000+0  52069-4 0  9996,2 45754  53.0534  97.5568 0001384  89.0908 271.0239 15.06393169296304
STARLINK-1478,45755,53.0536,0.0001302,15.06392781,546.3319999589548,548.1353664848657,1 45755U 20038AB  25299.71092096  .00001660  00000+0  13035-3 0  9997,2 45755  53.0536  98.0720 0001302  87.8780 272.2358 15.06392781296277
STARLINK-1484,45756,53.0183,0.0001248,15.59481359,388.31251847723615,390.001635078801,1 45756U 20038AC  25299.39378789  .00070287  00000+0  86959-3 0  9994,2 45756  53.0183   7.1144 0001248 310.0004  50.0898 15.59481359297524
STARLINK-1493,45759,53.0539,0.0001289,15.06393509,546.3387719963757,548.1241319832989,1 45759U 20038AF  25299.76621339  .00001194  00000+0  99080-4 0  9991,2 45759  53.0539  97.8226 0001289  90.7693 269.3443 15.06393509296284
STARLINK-1494,45760,53.0548,0.0001348,15.50905832,413.16445322689015,414.99563494197537,1 45760U 20038AG  25299.63941227  .00037997  00000+0  65020-3 0  9996,2 45760  53.0548  85.0362 0001348  17.3374 342.7680 15.50905832296469
STARLINK-1502,45764,53.0548,0.0001259,15.0639314,546.3606788995539,548.1044869605366,1 45764U 20038AL  25299.79938509  .00000895  00000+0  78991-4 0  9995,2 45764  53.0548  97.6728 0001259  84.6298 275.4834 15.06393140296301
STARLINK-1470,45772,53.0489,0.0003762,15.1731667,511.36149361767093,516.5471031105608,1 45772U 20038AU  25299.69005514  .00008973  00000+0  45956-3 0  9993,2 45772  53.0489  71.0115 0003762 202.9352 157.1474 15.17316670296667
STARLINK-1482,45773,53.0542,0.000139,15.06394126,546.2669350087926,548.1921869127391,1 45773U 20038AV  25299.76437186  .00002544  00000+0  18967-3 0  9996,2 45773  53.0542  77.8322 0001390  91.2491 268.8657 15.06394126296573
STARLINK-1485,45774,53.0411,0.0007352,16.06390858,251.88467168242278,261.64062812764314,1 45774U 20038AW  25299.61307595  .00561879  16456-3  73208-3 0  9997,2 45774  53.0411   9.4637 0007352   4.6220 355.4879 16.06390858297514
STARLINK-1496,45780,53.0541,0.0001306,15.06398977,546.3102423565697,548.1191442188574,1 45780U 20038BC  25299.73119138  .00000729  00000+0  67839-4 0  9991,2 45780  53.0541  77.9790 0001306  88.4296 271.6842 15.06398977296552
STARLINK-1497,45781,53.0402,0.0005769,15.52841843,404.51821764842225,412.3485625645271,1 45781U 20038BD  25299.91670139  .00110373  00000+0  17315-2 0  9994,2 45781  53.0402  24.0465 0005769 256.3579  28.2534 15.52841843  5905
STARLINK-1510,45784,53.0332,9.53e-05,15.67903257,364.2593098799334,365.54453309836845,1 45784U 20038BG  25299.91670139  .00115069  00000+0  10139-2 0  9991,2 45784  53.0332   0.7641 0000953  86.1459 179.7275 15.67903257  5798
STARLINK-1513,45786,53.055,0.0001441,15.06390678,546.2421818287585,548.2380755172417,1 45786U 20038BJ  25299.82703190  .00001422  00000+0  11438-3 0  9998,2 45786  53.0550  77.5519 0001441  97.9901 262.1252 15.06390678296584
STARLINK-1522,46027,53.0552,0.0001385,15.06395397,546.2665027770745,548.1848282354204,1 46027U 20055A   25299.47595221  .00001391  00000+0  11228-3 0  9993,2 46027  53.0552   9.1269 0001385  89.2254 270.8894 15.06395397288650
STARLINK-1523,46028,53.0555,0.000133,15.06387116,546.3299692139908,548.17212243418,1 46028U 20055B   25299.62337826 -.00003297  00000+0 -20259-3 0  9999,2 46028  53.0555   8.4668 0001330 103.5438 256.5699 15.06387116288691
STARLINK-1526,46029,53.0557,0.000143,15.06393554,546.2409864014198,548.2216417392438,1 46029U 20055C   25299.61600909  .00006404  00000+0  44851-3 0  9999,2 46029  53.0557   8.4956 0001430  86.9285 273.1868 15.06393554288684
STARLINK-1555,46032,53.0552,0.0001338,15.06392284,546.3085916666878,548.1618212691374,1 46032U 20055F   25299.60123541 -.00018858  00000+0 -12507-2 0  9994,2 46032  53.0552   8.5642 0001338 107.6052 252.5084 15.06392284288686
STARLINK-1556,46033,53.0556,0.0001264,15.06392335,546.3596831317882,548.1104171860688,1 46033U 20055G   25299.51649442 -.00000370  00000+0 -59351-5 0  9999,2 46033  53.0556   8.9464 0001264  98.0521 262.0611 15.06392335288644
STARLINK-1557,46034,53.0562,0.0001354,15.06397061,546.282872150251,548.158258979006,1 46034U 20055H   25299.52018255  .00000756  00000+0  69628-4 0  9996,2 46034  53.0562   8.9275 0001354  89.0454 271.0690 15.06397061288645
STARLINK-1558,46035,53.0547,0.0001563,15.06397207,546.1376847766805,548.3025514117962,1 46035U 20055J   25299.46119513 -.00003878  00000+0 -24163-3 0  9993,2 46035  53.0547   9.1946 0001563  97.7399 262.3768 15.06397207288666
